<?xml version="1.0" encoding="UTF-8"?>
<ndm xmlns:xsi="http://www.w3.org/2001/XMLSchema-instance" xsi:noNamespaceSchemaLocation="https://sanaregistry.org/r/ndmxml_unqualified/ndmxml-2.0.0-master-2.0.xsd">
<omm id="CCSDS_OMM_VERS" version="2.0">
<header><CREATION_DATE/><ORIGINATOR/></header><body><segment><metadata><OBJECT_NAME>IRIDIUM 57</OBJECT_NAME><OBJECT_ID>1998-019B</OBJECT_ID><CENTER_NAME>EARTH</CENTER_NAME><REF_FRAME>TEME</REF_FRAME><TIME_SYSTEM>UTC</TIME_SYSTEM><MEAN_ELEMENT_THEORY>SGP4</MEAN_ELEMENT_THEORY></metadata><data><meanElements><EPOCH>2024-09-04T13:15:49.552704</EPOCH><MEAN_MOTION>14.35370967</MEAN_MOTION><ECCENTRICITY>.0002231</ECCENTRICITY><INCLINATION>86.3901</INCLINATION><RA_OF_ASC_NODE>264.8644</RA_OF_ASC_NODE><ARG_OF_PERICENTER>90.4549</ARG_OF_PERICENTER><MEAN_ANOMALY>269.6903</MEAN_ANOMALY></meanElements><tleParameters><EPHEMERIS_TYPE>0</EPHEMERIS_TYPE><CLASSIFICATION_TYPE>U</CLASSIFICATION_TYPE><NORAD_CAT_ID>25273</NORAD_CAT_ID><ELEMENT_SET_NO>999</ELEMENT_SET_NO><REV_AT_EPOCH>38380</REV_AT_EPOCH><BSTAR>.46468E-3</BSTAR><MEAN_MOTION_DOT>.1352E-4</MEAN_MOTION_DOT><MEAN_MOTION_DDOT>0</MEAN_MOTION_DDOT></tleParameters></data></segment></body></omm>
<omm id="CCSDS_OMM_VERS" version="2.0">
<header><CREATION_DATE/><ORIGINATOR/></header><body><segment><metadata><OBJECT_NAME>IRIDIUM 63</OBJECT_NAME><OBJECT_ID>1998-021B</OBJECT_ID><CENTER_NAME>EARTH</CENTER_NAME><REF_FRAME>TEME</REF_FRAME><TIME_SYSTEM>UTC</TIME_SYSTEM><MEAN_ELEMENT_THEORY>SGP4</MEAN_ELEMENT_THEORY></metadata><data><meanElements><EPOCH>2024-09-04T09:44:58.502688</EPOCH><MEAN_MOTION>14.35954585</MEAN_MOTION><ECCENTRICITY>.0002564</ECCENTRICITY><INCLINATION>86.4028</INCLINATION><RA_OF_ASC_NODE>201.8524</RA_OF_ASC_NODE><ARG_OF_PERICENTER>88.4294</ARG_OF_PERICENTER><MEAN_ANOMALY>271.7197</MEAN_ANOMALY></meanElements><tleParameters><EPHEMERIS_TYPE>0</EPHEMERIS_TYPE><CLASSIFICATION_TYPE>U</CLASSIFICATION_TYPE><NORAD_CAT_ID>25286</NORAD_CAT_ID><ELEMENT_SET_NO>999</ELEMENT_SET_NO><REV_AT_EPOCH>38282</REV_AT_EPOCH><BSTAR>.7068E-3</BSTAR><MEAN_MOTION_DOT>.207E-4</MEAN_MOTION_DOT><MEAN_MOTION_DDOT>0</MEAN_MOTION_DDOT></tleParameters></data></segment></body></omm>
<omm id="CCSDS_OMM_VERS" version="2.0">
<header><CREATION_DATE/><ORIGINATOR/></header><body><segment><metadata><OBJECT_NAME>IRIDIUM 69</OBJECT_NAME><OBJECT_ID>1998-026A</OBJECT_ID><CENTER_NAME>EARTH</CENTER_NAME><REF_FRAME>TEME</REF_FRAME><TIME_SYSTEM>UTC</TIME_SYSTEM><MEAN_ELEMENT_THEORY>SGP4</MEAN_ELEMENT_THEORY></metadata><data><meanElements><EPOCH>2024-09-04T10:47:28.584096</EPOCH><MEAN_MOTION>14.40202621</MEAN_MOTION><ECCENTRICITY>.0000901</ECCENTRICITY><INCLINATION>86.3994</INCLINATION><RA_OF_ASC_NODE>215.9696</RA_OF_ASC_NODE><ARG_OF_PERICENTER>157.3461</ARG_OF_PERICENTER><MEAN_ANOMALY>202.7778</MEAN_ANOMALY></meanElements><tleParameters><EPHEMERIS_TYPE>0</EPHEMERIS_TYPE><CLASSIFICATION_TYPE>U</CLASSIFICATION_TYPE><NORAD_CAT_ID>25319</NORAD_CAT_ID><ELEMENT_SET_NO>999</ELEMENT_SET_NO><REV_AT_EPOCH>38192</REV_AT_EPOCH><BSTAR>.58039E-3</BSTAR><MEAN_MOTION_DOT>.1854E-4</MEAN_MOTION_DOT><MEAN_MOTION_DDOT>0</MEAN_MOTION_DDOT></tleParameters></data></segment></body></omm>
<omm id="CCSDS_OMM_VERS" version="2.0">
<header><CREATION_DATE/><ORIGINATOR/></header><body><segment><metadata><OBJECT_NAME>IRIDIUM 71</OBJECT_NAME><OBJECT_ID>1998-026B</OBJECT_ID><CENTER_NAME>EARTH</CENTER_NAME><REF_FRAME>TEME</REF_FRAME><TIME_SYSTEM>UTC</TIME_SYSTEM><MEAN_ELEMENT_THEORY>SGP4</MEAN_ELEMENT_THEORY></metadata><data><meanElements><EPOCH>2024-09-04T10:23:06.937152</EPOCH><MEAN_MOTION>14.40516819</MEAN_MOTION><ECCENTRICITY>.0001659</ECCENTRICITY><INCLINATION>86.4002</INCLINATION><RA_OF_ASC_NODE>210.7251</RA_OF_ASC_NODE><ARG_OF_PERICENTER>27.8527</ARG_OF_PERICENTER><MEAN_ANOMALY>332.2761</MEAN_ANOMALY></meanElements><tleParameters><EPHEMERIS_TYPE>0</EPHEMERIS_TYPE><CLASSIFICATION_TYPE>U</CLASSIFICATION_TYPE><NORAD_CAT_ID>25320</NORAD_CAT_ID><ELEMENT_SET_NO>999</ELEMENT_SET_NO><REV_AT_EPOCH>38244</REV_AT_EPOCH><BSTAR>.62471E-3</BSTAR><MEAN_MOTION_DOT>.2006E-4</MEAN_MOTION_DOT><MEAN_MOTION_DDOT>0</MEAN_MOTION_DDOT></tleParameters></data></segment></body></omm>
<omm id="CCSDS_OMM_VERS" version="2.0">
<header><CREATION_DATE/><ORIGINATOR/></header><body><segment><metadata><OBJECT_NAME>IRIDIUM 73</OBJECT_NAME><OBJECT_ID>1998-032C</OBJECT_ID><CENTER_NAME>EARTH</CENTER_NAME><REF_FRAME>TEME</REF_FRAME><TIME_SYSTEM>UTC</TIME_SYSTEM><MEAN_ELEMENT_THEORY>SGP4</MEAN_ELEMENT_THEORY></metadata><data><meanElements><EPOCH>2024-09-04T08:23:39.353856</EPOCH><MEAN_MOTION>14.50823359</MEAN_MOTION><ECCENTRICITY>.000197</ECCENTRICITY><INCLINATION>86.4494</INCLINATION><RA_OF_ASC_NODE>168.1121</RA_OF_ASC_NODE><ARG_OF_PERICENTER>93.2431</ARG_OF_PERICENTER><MEAN_ANOMALY>266.9000</MEAN_ANOMALY></meanElements><tleParameters><EPHEMERIS_TYPE>0</EPHEMERIS_TYPE><CLASSIFICATION_TYPE>U</CLASSIFICATION_TYPE><NORAD_CAT_ID>25344</NORAD_CAT_ID><ELEMENT_SET_NO>999</ELEMENT_SET_NO><REV_AT_EPOCH>38910</REV_AT_EPOCH><BSTAR>.73976E-3</BSTAR><MEAN_MOTION_DOT>.2933E-4</MEAN_MOTION_DOT><MEAN_MOTION_DDOT>0</MEAN_MOTION_DDOT></tleParameters></data></segment></body></omm>
<omm id="CCSDS_OMM_VERS" version="2.0">
<header><CREATION_DATE/><ORIGINATOR/></header><body><segment><metadata><OBJECT_NAME>IRIDIUM 82</OBJECT_NAME><OBJECT_ID>1998-051A</OBJECT_ID><CENTER_NAME>EARTH</CENTER_NAME><REF_FRAME>TEME</REF_FRAME><TIME_SYSTEM>UTC</TIME_SYSTEM><MEAN_ELEMENT_THEORY>SGP4</MEAN_ELEMENT_THEORY></metadata><data><meanElements><EPOCH>2024-09-04T11:58:25.657248</EPOCH><MEAN_MOTION>15.13868836</MEAN_MOTION><ECCENTRICITY>.0116089</ECCENTRICITY><INCLINATION>86.3690</INCLINATION><RA_OF_ASC_NODE>248.0323</RA_OF_ASC_NODE><ARG_OF_PERICENTER>288.3577</ARG_OF_PERICENTER><MEAN_ANOMALY>70.5064</MEAN_ANOMALY></meanElements><tleParameters><EPHEMERIS_TYPE>0</EPHEMERIS_TYPE><CLASSIFICATION_TYPE>U</CLASSIFICATION_TYPE><NORAD_CAT_ID>25467</NORAD_CAT_ID><ELEMENT_SET_NO>999</ELEMENT_SET_NO><REV_AT_EPOCH>38047</REV_AT_EPOCH><BSTAR>.17118E-2</BSTAR><MEAN_MOTION_DOT>.36768E-3</MEAN_MOTION_DOT><MEAN_MOTION_DDOT>0</MEAN_MOTION_DDOT></tleParameters></data></segment></body></omm>
</ndm>
