25286,IRIDIUM 63,1998,100.28,-1.0,-,86.4,Inactive,0,LEO,Kazakhstan,USA,Unknown,Unknown,Unknown,1 25286U 98021B   24248.40623267  .00002070  00000+0  70680-3 0  9995,2 25286  86.4028 201.8524 0002564  88.4294 271.7197 14.35954585382823,14.35954585,0.0002564,LEO
25319,IRIDIUM 69,1998,99.99,-1.0,-,86.4,Inactive,0,LEO,PRC,USA,Unknown,Unknown,Unknown,1 25319U 98026A   24248.44963639  .00001854  00000+0  58039-3 0  9994,2 25319  86.3994 215.9696 0000901 157.3461 202.7778 14.40202621381924,14.40202621,9.01e-05,LEO
25320,IRIDIUM 71,1998,99.96,-1.0,-,86.4,Inactive,0,LEO,PRC,USA,Unknown,Unknown,Unknown,1 25320U 98026B   24248.43271918  .00002006  00000+0  62471-3 0  9992,2 25320  86.4002 210.7251 0001659  27.8527 332.2761 14.40516819382448,14.40516819,0.0001659,LEO
25344,IRIDIUM 73,1998,99.25,-1.0,-,86.45,Inactive,0,LEO,USA,USA,Unknown,Unknown,Unknown,1 25344U 98032C   24248.34976104  .00002933  00000+0  73976-3 0  9995,2 25344  86.4494 168.1121 0001970  93.2431 266.9000 14.50823359389108,14.50823359,0.000197,LEO
25467,IRIDIUM 82,1998,95.12,-1.0,-,86.37,Inactive,0,LEO,USA,USA,Unknown,Unknown,Unknown,1 25467U 98051A   24248.49890807  .00036768  00000+0  17118-2 0  9991,2 25467  86.3690 248.0323 0116089 288.3577  70.5064 15.13868836380478,15.13868836,0.0116089,LEO
25273,IRIDIUM 57,1998,100.32,-1.0,-,86.39,Inactive,0,LEO,USA,USA,Unknown,Unknown,Unknown,1 25273U 98019B   24248.55265686  .00001352  00000+0  46468-3 0  9990,2 25273  86.3901 264.8644 0002231  90.4549 269.6903 14.35370967383803,14.35370967,0.0002231,LEO
